STARLINK-36440          
1 67447U 26008C   26039.83335647 -.01985414  00000+0 -33582-1 0  9998
2 67447  42.9999   9.0772 0000839 264.9846 280.0338 15.53873503  5151
STARLINK-36423          
1 67448U 26008D   26039.83335647  .00092896  00000+0  15745-2 0  9991
2 67448  43.0005   9.6871 0001514 261.1104  35.9677 15.50507708  5156
STARLINK-36519          
1 67449U 26008E   26039.83335647 -.00315560  00000+0 -55580-2 0  9991
2 67449  43.0003   9.1888 0001852 253.8744 245.5933 15.50750925  5156
STARLINK-36525          
1 67450U 26008F   26039.83335647  .00094668  00000+0  16049-2 0  9991
2 67450  43.0004   9.5566 0001594 256.6262  92.9331 15.50494022  5154
STARLINK-36511          
1 67451U 26008G   26039.83335647  .00112249  00000+0  18974-2 0  9997
2 67451  43.0004   9.6603 0001426 259.7626  48.2079 15.50496176  5155
STARLINK-36524          
1 67452U 26008H   26039.83335647  .00133445  00000+0  22486-2 0  9992
2 67452  43.0005   9.5080 0001279 253.6670 115.5292 15.50494657  5150
STARLINK-36518          
1 67453U 26008J   26039.83335647  .00061477  00000+0  10467-2 0  9994
2 67453  42.9992   9.0062 0000636 254.0135 313.5381 15.50546716  5171
STARLINK-36517          
1 67454U 26008K   26039.83335647  .00111218  00000+0  18801-2 0  9994
2 67454  43.0003   9.7242 0001152 269.0437  12.4267 15.50499730  5170
STARLINK-36516          
1 67455U 26008L   26039.83335647  .00093393  00000+0  15838-2 0  9995
2 67455  43.0003   9.5864 0001506 260.5262  76.8727 15.50489846  5154
STARLINK-36493          
1 67456U 26008M   26039.83335647  .00108484  00000+0  18347-2 0  9992
2 67456  43.0004   9.5550 0001392 250.5512  99.7777 15.50499105  5156
STARLINK-36529          
1 67457U 26008N   26039.83335647 -.00023694  00000+0 -39940-3 0  9997
2 67457  43.0004   9.2965 0001256 235.0728 219.8571 15.50570068  5155
STARLINK-36528          
1 67458U 26008P   26039.83335647 -.02042156  00000+0 -33443-1 0  9994
2 67458  43.0004   8.9897 0000991 253.7853 325.8300 15.54836499  5174
