CCSDS_OMM_VERS = 2.0
CREATION_DATE  = 
ORIGINATOR     = 

OBJECT_NAME    = STARLINK-36440
OBJECT_ID      = 2026-008C
CENTER_NAME    = EARTH
REF_FRAME      = TEME
TIME_SYSTEM    = UTC
MEAN_ELEMENT_THEORY = SGP/SGP4

EPOCH          = 2026-02-08T20:00:01.999008
MEAN_MOTION    = 15.53873503
ECCENTRICITY   = .0000839
INCLINATION    = 42.9999
RA_OF_ASC_NODE = 9.0772
ARG_OF_PERICENTER = 264.9846
MEAN_ANOMALY   = 280.0338

EPHEMERIS_TYPE = 0
CLASSIFICATION_TYPE = U
NORAD_CAT_ID   = 67447
ELEMENT_SET_NO = 999
REV_AT_EPOCH   = 515
BSTAR          = -.33582E-1
MEAN_MOTION_DOT = -.1985414E-1
MEAN_MOTION_DDOT = 0

CCSDS_OMM_VERS = 2.0
CREATION_DATE  = 
ORIGINATOR     = 

OBJECT_NAME    = STARLINK-36423
OBJECT_ID      = 2026-008D
CENTER_NAME    = EARTH
REF_FRAME      = TEME
TIME_SYSTEM    = UTC
MEAN_ELEMENT_THEORY = SGP/SGP4

EPOCH          = 2026-02-08T20:00:01.999008
MEAN_MOTION    = 15.50507708
ECCENTRICITY   = .0001514
INCLINATION    = 43.0005
RA_OF_ASC_NODE = 9.6871
ARG_OF_PERICENTER = 261.1104
MEAN_ANOMALY   = 35.9677

EPHEMERIS_TYPE = 0
CLASSIFICATION_TYPE = U
NORAD_CAT_ID   = 67448
ELEMENT_SET_NO = 999
REV_AT_EPOCH   = 515
BSTAR          = .15745E-2
MEAN_MOTION_DOT = .92896E-3
MEAN_MOTION_DDOT = 0

CCSDS_OMM_VERS = 2.0
CREATION_DATE  = 
ORIGINATOR     = 

OBJECT_NAME    = STARLINK-36519
OBJECT_ID      = 2026-008E
CENTER_NAME    = EARTH
REF_FRAME      = TEME
TIME_SYSTEM    = UTC
MEAN_ELEMENT_THEORY = SGP/SGP4

EPOCH          = 2026-02-08T20:00:01.999008
MEAN_MOTION    = 15.50750925
ECCENTRICITY   = .0001852
INCLINATION    = 43.0003
RA_OF_ASC_NODE = 9.1888
ARG_OF_PERICENTER = 253.8744
MEAN_ANOMALY   = 245.5933

EPHEMERIS_TYPE = 0
CLASSIFICATION_TYPE = U
NORAD_CAT_ID   = 67449
ELEMENT_SET_NO = 999
REV_AT_EPOCH   = 515
BSTAR          = -.5558E-2
MEAN_MOTION_DOT = -.31556E-2
MEAN_MOTION_DDOT = 0

CCSDS_OMM_VERS = 2.0
CREATION_DATE  = 
ORIGINATOR     = 

OBJECT_NAME    = STARLINK-36525
OBJECT_ID      = 2026-008F
CENTER_NAME    = EARTH
REF_FRAME      = TEME
TIME_SYSTEM    = UTC
MEAN_ELEMENT_THEORY = SGP/SGP4

EPOCH          = 2026-02-08T20:00:01.999008
MEAN_MOTION    = 15.50494022
ECCENTRICITY   = .0001594
INCLINATION    = 43.0004
RA_OF_ASC_NODE = 9.5566
ARG_OF_PERICENTER = 256.6262
MEAN_ANOMALY   = 92.9331

EPHEMERIS_TYPE = 0
CLASSIFICATION_TYPE = U
NORAD_CAT_ID   = 67450
ELEMENT_SET_NO = 999
REV_AT_EPOCH   = 515
BSTAR          = .16049E-2
MEAN_MOTION_DOT = .94668E-3
MEAN_MOTION_DDOT = 0

CCSDS_OMM_VERS = 2.0
CREATION_DATE  = 
ORIGINATOR     = 

OBJECT_NAME    = STARLINK-36511
OBJECT_ID      = 2026-008G
CENTER_NAME    = EARTH
REF_FRAME      = TEME
TIME_SYSTEM    = UTC
MEAN_ELEMENT_THEORY = SGP/SGP4

EPOCH          = 2026-02-08T20:00:01.999008
MEAN_MOTION    = 15.50496176
ECCENTRICITY   = .0001426
INCLINATION    = 43.0004
RA_OF_ASC_NODE = 9.6603
ARG_OF_PERICENTER = 259.7626
MEAN_ANOMALY   = 48.2079

EPHEMERIS_TYPE = 0
CLASSIFICATION_TYPE = U
NORAD_CAT_ID   = 67451
ELEMENT_SET_NO = 999
REV_AT_EPOCH   = 515
BSTAR          = .18974E-2
MEAN_MOTION_DOT = .112249E-2
MEAN_MOTION_DDOT = 0

CCSDS_OMM_VERS = 2.0
CREATION_DATE  = 
ORIGINATOR     = 

OBJECT_NAME    = STARLINK-36524
OBJECT_ID      = 2026-008H
CENTER_NAME    = EARTH
REF_FRAME      = TEME
TIME_SYSTEM    = UTC
MEAN_ELEMENT_THEORY = SGP/SGP4

EPOCH          = 2026-02-08T20:00:01.999008
MEAN_MOTION    = 15.50494657
ECCENTRICITY   = .0001279
INCLINATION    = 43.0005
RA_OF_ASC_NODE = 9.5080
ARG_OF_PERICENTER = 253.6670
MEAN_ANOMALY   = 115.5292

EPHEMERIS_TYPE = 0
CLASSIFICATION_TYPE = U
NORAD_CAT_ID   = 67452
ELEMENT_SET_NO = 999
REV_AT_EPOCH   = 515
BSTAR          = .22486E-2
MEAN_MOTION_DOT = .133445E-2
MEAN_MOTION_DDOT = 0

CCSDS_OMM_VERS = 2.0
CREATION_DATE  = 
ORIGINATOR     = 

OBJECT_NAME    = STARLINK-36518
OBJECT_ID      = 2026-008J
CENTER_NAME    = EARTH
REF_FRAME      = TEME
TIME_SYSTEM    = UTC
MEAN_ELEMENT_THEORY = SGP/SGP4

EPOCH          = 2026-02-08T20:00:01.999008
MEAN_MOTION    = 15.50546716
ECCENTRICITY   = .0000636
INCLINATION    = 42.9992
RA_OF_ASC_NODE = 9.0062
ARG_OF_PERICENTER = 254.0135
MEAN_ANOMALY   = 313.5381

EPHEMERIS_TYPE = 0
CLASSIFICATION_TYPE = U
NORAD_CAT_ID   = 67453
ELEMENT_SET_NO = 999
REV_AT_EPOCH   = 517
BSTAR          = .10467E-2
MEAN_MOTION_DOT = .61477E-3
MEAN_MOTION_DDOT = 0

CCSDS_OMM_VERS = 2.0
CREATION_DATE  = 
ORIGINATOR     = 

OBJECT_NAME    = STARLINK-36517
OBJECT_ID      = 2026-008K
CENTER_NAME    = EARTH
REF_FRAME      = TEME
TIME_SYSTEM    = UTC
MEAN_ELEMENT_THEORY = SGP/SGP4

EPOCH          = 2026-02-08T20:00:01.999008
MEAN_MOTION    = 15.50499730
ECCENTRICITY   = .0001152
INCLINATION    = 43.0003
RA_OF_ASC_NODE = 9.7242
ARG_OF_PERICENTER = 269.0437
MEAN_ANOMALY   = 12.4267

EPHEMERIS_TYPE = 0
CLASSIFICATION_TYPE = U
NORAD_CAT_ID   = 67454
ELEMENT_SET_NO = 999
REV_AT_EPOCH   = 517
BSTAR          = .18801E-2
MEAN_MOTION_DOT = .111218E-2
MEAN_MOTION_DDOT = 0

CCSDS_OMM_VERS = 2.0
CREATION_DATE  = 
ORIGINATOR     = 

OBJECT_NAME    = STARLINK-36516
OBJECT_ID      = 2026-008L
CENTER_NAME    = EARTH
REF_FRAME      = TEME
TIME_SYSTEM    = UTC
MEAN_ELEMENT_THEORY = SGP/SGP4

EPOCH          = 2026-02-08T20:00:01.999008
MEAN_MOTION    = 15.50489846
ECCENTRICITY   = .0001506
INCLINATION    = 43.0003
RA_OF_ASC_NODE = 9.5864
ARG_OF_PERICENTER = 260.5262
MEAN_ANOMALY   = 76.8727

EPHEMERIS_TYPE = 0
CLASSIFICATION_TYPE = U
NORAD_CAT_ID   = 67455
ELEMENT_SET_NO = 999
REV_AT_EPOCH   = 515
BSTAR          = .15838E-2
MEAN_MOTION_DOT = .93393E-3
MEAN_MOTION_DDOT = 0

CCSDS_OMM_VERS = 2.0
CREATION_DATE  = 
ORIGINATOR     = 

OBJECT_NAME    = STARLINK-36493
OBJECT_ID      = 2026-008M
CENTER_NAME    = EARTH
REF_FRAME      = TEME
TIME_SYSTEM    = UTC
MEAN_ELEMENT_THEORY = SGP/SGP4

EPOCH          = 2026-02-08T20:00:01.999008
MEAN_MOTION    = 15.50499105
ECCENTRICITY   = .0001392
INCLINATION    = 43.0004
RA_OF_ASC_NODE = 9.5550
ARG_OF_PERICENTER = 250.5512
MEAN_ANOMALY   = 99.7777

EPHEMERIS_TYPE = 0
CLASSIFICATION_TYPE = U
NORAD_CAT_ID   = 67456
ELEMENT_SET_NO = 999
REV_AT_EPOCH   = 515
BSTAR          = .18347E-2
MEAN_MOTION_DOT = .108484E-2
MEAN_MOTION_DDOT = 0

CCSDS_OMM_VERS = 2.0
CREATION_DATE  = 
ORIGINATOR     = 

OBJECT_NAME    = STARLINK-36529
OBJECT_ID      = 2026-008N
CENTER_NAME    = EARTH
REF_FRAME      = TEME
TIME_SYSTEM    = UTC
MEAN_ELEMENT_THEORY = SGP/SGP4

EPOCH          = 2026-02-08T20:00:01.999008
MEAN_MOTION    = 15.50570068
ECCENTRICITY   = .0001256
INCLINATION    = 43.0004
RA_OF_ASC_NODE = 9.2965
ARG_OF_PERICENTER = 235.0728
MEAN_ANOMALY   = 219.8571

EPHEMERIS_TYPE = 0
CLASSIFICATION_TYPE = U
NORAD_CAT_ID   = 67457
ELEMENT_SET_NO = 999
REV_AT_EPOCH   = 515
BSTAR          = -.3994E-3
MEAN_MOTION_DOT = -.23694E-3
MEAN_MOTION_DDOT = 0

CCSDS_OMM_VERS = 2.0
CREATION_DATE  = 
ORIGINATOR     = 

OBJECT_NAME    = STARLINK-36528
OBJECT_ID      = 2026-008P
CENTER_NAME    = EARTH
REF_FRAME      = TEME
TIME_SYSTEM    = UTC
MEAN_ELEMENT_THEORY = SGP/SGP4

EPOCH          = 2026-02-08T20:00:01.999008
MEAN_MOTION    = 15.54836499
ECCENTRICITY   = .0000991
INCLINATION    = 43.0004
RA_OF_ASC_NODE = 8.9897
ARG_OF_PERICENTER = 253.7853
MEAN_ANOMALY   = 325.8300

EPHEMERIS_TYPE = 0
CLASSIFICATION_TYPE = U
NORAD_CAT_ID   = 67458
ELEMENT_SET_NO = 999
REV_AT_EPOCH   = 517
BSTAR          = -.33443E-1
MEAN_MOTION_DOT = -.2042156E-1
MEAN_MOTION_DDOT = 0

